[{"OBJECT_NAME":"STARLINK-34244","OBJECT_ID":"2025-190A","EPOCH":"2026-03-09T13:33:07.280640","MEAN_MOTION":15.30183293,"ECCENTRICITY":0.0001286,"INCLINATION":53.1581,"RA_OF_ASC_NODE":168.9585,"ARG_OF_PERICENTER":83.6492,"MEAN_ANOMALY":276.4655,"EPHEMERIS_TYPE":0,"CLASSIFICATION_TYPE":"U","NORAD_CAT_ID":65351,"ELEMENT_SET_NO":999,"REV_AT_EPOCH":2973,"BSTAR":0.0013075,"MEAN_MOTION_DOT":0.00038546,"MEAN_MOTION_DDOT":0},{"OBJECT_NAME":"OBJECT P","OBJECT_ID":"2018-099P","EPOCH":"2026-03-09T16:35:55.790016","MEAN_MOTION":15.30834106,"ECCENTRICITY":0.00076856,"INCLINATION":97.4366,"RA_OF_ASC_NODE":131.9195,"ARG_OF_PERICENTER":276.7627,"MEAN_ANOMALY":83.2739,"EPHEMERIS_TYPE":0,"CLASSIFICATION_TYPE":"U","NORAD_CAT_ID":43771,"ELEMENT_SET_NO":999,"REV_AT_EPOCH":39830,"BSTAR":0.00063632878,"MEAN_MOTION_DOT":0.00018926,"MEAN_MOTION_DDOT":0}]
